{
  "type": "FeatureCollection",
  "features": [
    {
      "type": "Feature",
      "properties": {
        "norad_id": 33860,
        "name": "IRIDIUM 33 DEB",
        "group": "iridium-33-debris",
        "lat": -63.13006998864518,
        "lon": -143.82037186733916,
        "alt_km": 680.5370919946536,
        "timestamp": "2025-12-08T17:43:05.321370+00:00",
        "meta_object_name": "IRIDIUM 33 DEB",
        "meta_object_id": "1997-051AD",
        "meta_epoch": "2025-12-08T03:45:46.231776",
        "meta_mean_motion": 14.67277261,
        "meta_eccentricity": 0.00080497,
        "meta_inclination": 86.3837,
        "meta_ra_of_asc_node": 29.2665,
        "meta_arg_of_pericenter": 13.4779,
        "meta_mean_anomaly": 40.4373,
        "meta_ephemeris_type": 0,
        "meta_classification_type": "U",
        "meta_norad_cat_id": 33860,
        "meta_element_set_no": 999,
        "meta_rev_at_epoch": 88655,
        "meta_bstar": 0.0015591643,
        "meta_mean_motion_dot": 8.818e-05,
        "meta_mean_motion_ddot": 0,
        "tle_line1": "1 33860U 97051AD  25342.15678509  .00008818  00000+0  15592-2 0  9997",
        "tle_line2": "2 33860  86.3837  29.2665 0008049  13.4779  40.4373 14.67277261886555"
      },
      "geometry": {
        "type": "Point",
        "coordinates": [
          -143.82037186733916,
          -63.13006998864518
        ]
      }
    },
    {
      "type": "Feature",
      "properties": {
        "norad_id": 33862,
        "name": "IRIDIUM 33 DEB",
        "group": "iridium-33-debris",
        "lat": -68.41296684492148,
        "lon": -131.5727076424696,
        "alt_km": 707.2178569481321,
        "timestamp": "2025-12-08T17:43:05.321383+00:00",
        "meta_object_name": "IRIDIUM 33 DEB",
        "meta_object_id": "1997-051AF",
        "meta_epoch": "2025-12-08T05:26:46.118688",
        "meta_mean_motion": 14.69362788,
        "meta_eccentricity": 0.00538173,
        "meta_inclination": 86.4089,
        "meta_ra_of_asc_node": 39.52,
        "meta_arg_of_pericenter": 84.2667,
        "meta_mean_anomaly": 341.1904,
        "meta_ephemeris_type": 0,
        "meta_classification_type": "U",
        "meta_norad_cat_id": 33862,
        "meta_element_set_no": 999,
        "meta_rev_at_epoch": 88757,
        "meta_bstar": 0.0015994211,
        "meta_mean_motion_dot": 9.692e-05,
        "meta_mean_motion_ddot": 0,
        "tle_line1": "1 33862U 97051AF  25342.22692267  .00009692  00000+0  15994-2 0  9991",
        "tle_line2": "2 33862  86.4089  39.5200 0053817  84.2667 341.1904 14.69362788887576"
      },
      "geometry": {
        "type": "Point",
        "coordinates": [
          -131.5727076424696,
          -68.41296684492148
        ]
      }
    },
    {
      "type": "Feature",
      "properties": {
        "norad_id": 33866,
        "name": "IRIDIUM 33 DEB",
        "group": "iridium-33-debris",
        "lat": -49.951952146433825,
        "lon": -80.85638954784548,
        "alt_km": 767.9661699241669,
        "timestamp": "2025-12-08T17:43:05.321394+00:00",
        "meta_object_name": "IRIDIUM 33 DEB",
        "meta_object_id": "1997-051AK",
        "meta_epoch": "2025-12-08T06:50:03.112800",
        "meta_mean_motion": 14.25251233,
        "meta_eccentricity": 0.01141225,
        "meta_inclination": 86.3003,
        "meta_ra_of_asc_node": 94.9205,
        "meta_arg_of_pericenter": 175.5894,
        "meta_mean_anomaly": 247.9465,
        "meta_ephemeris_type": 0,
        "meta_classification_type": "U",
        "meta_norad_cat_id": 33866,
        "meta_element_set_no": 999,
        "meta_rev_at_epoch": 86747,
        "meta_bstar": 0.0011353012,
        "meta_mean_motion_dot": 2.876e-05,
        "meta_mean_motion_ddot": 0,
        "tle_line1": "1 33866U 97051AK  25342.28475825  .00002876  00000+0  11353-2 0  9992",
        "tle_line2": "2 33866  86.3003  94.9205 0114122 175.5894 247.9465 14.25251233867474"
      },
      "geometry": {
        "type": "Point",
        "coordinates": [
          -80.85638954784548,
          -49.951952146433825
        ]
      }
    },
    {
      "type": "Feature",
      "properties": {
        "norad_id": 33867,
        "name": "IRIDIUM 33 DEB",
        "group": "iridium-33-debris",
        "lat": 66.55909928739462,
        "lon": 0.6117975899326746,
        "alt_km": 371.1721840949185,
        "timestamp": "2025-12-08T17:43:05.321406+00:00",
        "meta_object_name": "IRIDIUM 33 DEB",
        "meta_object_id": "1997-051AL",
        "meta_epoch": "2025-12-08T00:30:06.071904",
        "meta_mean_motion": 15.59900081,
        "meta_eccentricity": 0.00126124,
        "meta_inclination": 86.362,
        "meta_ra_of_asc_node": 352.5419,
        "meta_arg_of_pericenter": 91.454,
        "meta_mean_anomaly": 268.817,
        "meta_ephemeris_type": 0,
        "meta_classification_type": "U",
        "meta_norad_cat_id": 33867,
        "meta_element_set_no": 999,
        "meta_rev_at_epoch": 89437,
        "meta_bstar": 0.0073518135,
        "meta_mean_motion_dot": 0.0063966,
        "meta_mean_motion_ddot": 0,
        "tle_line1": "1 33867U 97051AL  25342.02090361  .00639660  00000+0  73518-2 0  9991",
        "tle_line2": "2 33867  86.3620 352.5419 0012612  91.4540 268.8170 15.59900081894379"
      },
      "geometry": {
        "type": "Point",
        "coordinates": [
          0.6117975899326746,
          66.55909928739462
        ]
      }
    },
    {
      "type": "Feature",
      "properties": {
        "norad_id": 33870,
        "name": "IRIDIUM 33 DEB",
        "group": "iridium-33-debris",
        "lat": 31.55727786642261,
        "lon": 62.207475537695686,
        "alt_km": 751.640947034879,
        "timestamp": "2025-12-08T17:43:05.321417+00:00",
        "meta_object_name": "IRIDIUM 33 DEB",
        "meta_object_id": "1997-051AP",
        "meta_epoch": "2025-12-08T04:35:04.159104",
        "meta_mean_motion": 14.45812743,
        "meta_eccentricity": 0.00209812,
        "meta_inclination": 86.3749,
        "meta_ra_of_asc_node": 60.2105,
        "meta_arg_of_pericenter": 193.1042,
        "meta_mean_anomaly": 232.1982,
        "meta_ephemeris_type": 0,
        "meta_classification_type": "U",
        "meta_norad_cat_id": 33870,
        "meta_element_set_no": 999,
        "meta_rev_at_epoch": 88071,
        "meta_bstar": 0.0011351553,
        "meta_mean_motion_dot": 4.056e-05,
        "meta_mean_motion_ddot": 0,
        "tle_line1": "1 33870U 97051AP  25342.19102036  .00004056  00000+0  11352-2 0  9999",
        "tle_line2": "2 33870  86.3749  60.2105 0020981 193.1042 232.1982 14.45812743880714"
      },
      "geometry": {
        "type": "Point",
        "coordinates": [
          62.207475537695686,
          31.55727786642261
        ]
      }
    },
    {
      "type": "Feature",
      "properties": {
        "norad_id": 33881,
        "name": "IRIDIUM 33 DEB",
        "group": "iridium-33-debris",
        "lat": 73.82659271256996,
        "lon": -84.10167531055987,
        "alt_km": 691.2424421300693,
        "timestamp": "2025-12-08T17:43:05.321428+00:00",
        "meta_object_name": "IRIDIUM 33 DEB",
        "meta_object_id": "1997-051BA",
        "meta_epoch": "2025-12-08T07:37:57.150912",
        "meta_mean_motion": 14.56445285,
        "meta_eccentricity": 0.00614025,
        "meta_inclination": 86.3871,
        "meta_ra_of_asc_node": 108.6638,
        "meta_arg_of_pericenter": 189.0057,
        "meta_mean_anomaly": 235.4799,
        "meta_ephemeris_type": 0,
        "meta_classification_type": "U",
        "meta_norad_cat_id": 33881,
        "meta_element_set_no": 999,
        "meta_rev_at_epoch": 87436,
        "meta_bstar": 0.002608788,
        "meta_mean_motion_dot": 0.00011917,
        "meta_mean_motion_ddot": 0,
        "tle_line1": "1 33881U 97051BA  25342.31802258  .00011917  00000+0  26088-2 0  9994",
        "tle_line2": "2 33881  86.3871 108.6638 0061402 189.0057 235.4799 14.56445285874364"
      },
      "geometry": {
        "type": "Point",
        "coordinates": [
          -84.10167531055987,
          73.82659271256996
        ]
      }
    },
    {
      "type": "Feature",
      "properties": {
        "norad_id": 33884,
        "name": "IRIDIUM 33 DEB",
        "group": "iridium-33-debris",
        "lat": 66.42661172504248,
        "lon": -176.7441002414678,
        "alt_km": 636.3854995237198,
        "timestamp": "2025-12-08T17:43:05.321439+00:00",
        "meta_object_name": "IRIDIUM 33 DEB",
        "meta_object_id": "1997-051BD",
        "meta_epoch": "2025-12-08T01:13:27.836832",
        "meta_mean_motion": 14.77291673,
        "meta_eccentricity": 0.00101262,
        "meta_inclination": 86.3689,
        "meta_ra_of_asc_node": 11.9343,
        "meta_arg_of_pericenter": 341.6884,
        "meta_mean_anomaly": 78.9618,
        "meta_ephemeris_type": 0,
        "meta_classification_type": "U",
        "meta_norad_cat_id": 33884,
        "meta_element_set_no": 999,
        "meta_rev_at_epoch": 88778,
        "meta_bstar": 0.0017664374,
        "meta_mean_motion_dot": 0.00012576,
        "meta_mean_motion_ddot": 0,
        "tle_line1": "1 33884U 97051BD  25342.05101663  .00012576  00000+0  17664-2 0  9992",
        "tle_line2": "2 33884  86.3689  11.9343 0010126 341.6884  78.9618 14.77291673887787"
      },
      "geometry": {
        "type": "Point",
        "coordinates": [
          -176.7441002414678,
          66.42661172504248
        ]
      }
    }
  ]
}